{"type": "FeatureCollection", "features": [ {"type": "Feature", "properties": {"norad_id": 40118, "name": "GAOFEN-2", "group": "resource", "lat": -67.41637721872928, "lon": 79.35976982055244, "alt_km": 639.5354843306131, "timestamp": "2025-12-26T07:29:18.116834+00:00", "meta": {"OBJECT_NAME": "GAOFEN-2", "OBJECT_ID": "2014-049A", "EPOCH": "2025-12-25T23:41:21.724800", "MEAN_MOTION": 14.80629096, "ECCENTRICITY": 0.00087032, "INCLINATION": 98.0362, "RA_OF_ASC_NODE": 59.1771, "ARG_OF_PERICENTER": 76.4709, "MEAN_ANOMALY": 283.7472, "EPHEMERIS_TYPE": 0, "CLASSIFICATION_TYPE": "U", "NORAD_CAT_ID": 40118, "ELEMENT_SET_NO": 999, "REV_AT_EPOCH": 61360, "BSTAR": 7.9942849e-05, "MEAN_MOTION_DOT": 5.6e-06, "MEAN_MOTION_DDOT": 0}, "tle": {"line1": "1 40118U 14049A   25359.98705700  .00000560  00000+0  79943-4 0  9998", "line2": "2 40118  98.0362  59.1771 0008703  76.4709 283.7472 14.80629096613609"}}, "geometry": {"type": "Point", "coordinates": [79.35976982055244, -67.41637721872928]}}, {"type": "Feature", "properties": {"norad_id": 40143, "name": "YAOGAN-21", "group": "resource", "lat": -17.64410581894665, "lon": -139.2622313712373, "alt_km": 504.85782669863147, "timestamp": "2025-12-26T07:29:18.116844+00:00", "meta": {"OBJECT_NAME": "YAOGAN-21", "OBJECT_ID": "2014-053A", "EPOCH": "2025-12-25T22:44:35.816928", "MEAN_MOTION": 15.23803321, "ECCENTRICITY": 0.00084378, "INCLINATION": 97.1735, "RA_OF_ASC_NODE": 42.6851, "ARG_OF_PERICENTER": 357.8228, "MEAN_ANOMALY": 2.2971, "EPHEMERIS_TYPE": 0, "CLASSIFICATION_TYPE": "U", "NORAD_CAT_ID": 40143, "ELEMENT_SET_NO": 999, "REV_AT_EPOCH": 62855, "BSTAR": 0.00016291592, "MEAN_MOTION_DOT": 3.858e-05, "MEAN_MOTION_DDOT": 0}, "tle": {"line1": "1 40143U 14053A   25359.94763677  .00003858  00000+0  16292-3 0  9994", "line2": "2 40143  97.1735  42.6851 0008437 357.8228   2.2971 15.23803321628554"}}, "geometry": {"type": "Point", "coordinates": [-139.2622313712373, -17.64410581894665]}}, {"type": "Feature", "properties": {"norad_id": 40275, "name": "YAOGAN-22", "group": "resource", "lat": -42.65165706913731, "lon": 153.99507892850542, "alt_km": 1209.159388713013, "timestamp": "2025-12-26T07:29:18.116854+00:00", "meta": {"OBJECT_NAME": "YAOGAN-22", "OBJECT_ID": "2014-063A", "EPOCH": "2025-12-25T22:35:00.656448", "MEAN_MOTION": 13.15523293, "ECCENTRICITY": 0.00061005, "INCLINATION": 100.743, "RA_OF_ASC_NODE": 143.5472, "ARG_OF_PERICENTER": 216.6674, "MEAN_ANOMALY": 143.4021, "EPHEMERIS_TYPE": 0, "CLASSIFICATION_TYPE": "U", "NORAD_CAT_ID": 40275, "ELEMENT_SET_NO": 999, "REV_AT_EPOCH": 53703, "BSTAR": 5.1501256e-05, "MEAN_MOTION_DOT": -2.7e-07, "MEAN_MOTION_DDOT": 0}, "tle": {"line1": "1 40275U 14063A   25359.94097982 -.00000027  00000+0  51501-4 0  9999", "line2": "2 40275 100.7430 143.5472 0006100 216.6674 143.4021 13.15523293537037"}}, "geometry": {"type": "Point", "coordinates": [153.99507892850542, -42.65165706913731]}}, {"type": "Feature", "properties": {"norad_id": 40298, "name": "ASNARO", "group": "resource", "lat": 44.55617625940404, "lon": 68.61170989792024, "alt_km": 499.825526310221, "timestamp": "2025-12-26T07:29:18.116864+00:00", "meta": {"OBJECT_NAME": "ASNARO", "OBJECT_ID": "2014-070A", "EPOCH": "2025-12-25T21:48:35.097984", "MEAN_MOTION": 15.19755365, "ECCENTRICITY": 0.00057056, "INCLINATION": 97.363, "RA_OF_ASC_NODE": 75.5332, "ARG_OF_PERICENTER": 86.5048, "MEAN_ANOMALY": 273.684, "EPHEMERIS_TYPE": 0, "CLASSIFICATION_TYPE": "U", "NORAD_CAT_ID": 40298, "ELEMENT_SET_NO": 999, "REV_AT_EPOCH": 61769, "BSTAR": 0.00025384457, "MEAN_MOTION_DOT": 5.364e-05, "MEAN_MOTION_DDOT": 0}, "tle": {"line1": "1 40298U 14070A   25359.90873956  .00005364  00000+0  25384-3 0  9998", "line2": "2 40298  97.3630  75.5332 0005705  86.5048 273.6840 15.19755365617692"}}, "geometry": {"type": "Point", "coordinates": [68.61170989792024, 44.55617625940404]}}, {"type": "Feature", "properties": {"norad_id": 40310, "name": "YAOGAN-24", "group": "resource", "lat": 57.87084392664434, "lon": 118.33220589607424, "alt_km": 627.3865004459294, "timestamp": "2025-12-26T07:29:18.116874+00:00", "meta": {"OBJECT_NAME": "YAOGAN-24", "OBJECT_ID": "2014-072A", "EPOCH": "2025-12-25T23:05:21.606432", "MEAN_MOTION": 14.76204046, "ECCENTRICITY": 0.00152152, "INCLINATION": 98.1233, "RA_OF_ASC_NODE": 131.1266, "ARG_OF_PERICENTER": 98.4511, "MEAN_ANOMALY": 261.8424, "EPHEMERIS_TYPE": 0, "CLASSIFICATION_TYPE": "U", "NORAD_CAT_ID": 40310, "ELEMENT_SET_NO": 999, "REV_AT_EPOCH": 59816, "BSTAR": 0.00016615136, "MEAN_MOTION_DOT": 1.099e-05, "MEAN_MOTION_DDOT": 0}, "tle": {"line1": "1 40310U 14072A   25359.96205563  .00001099  00000+0  16615-3 0  9992", "line2": "2 40310  98.1233 131.1266 0015215  98.4511 261.8424 14.76204046598168"}}, "geometry": {"type": "Point", "coordinates": [118.33220589607424, 57.87084392664434]}}, {"type": "Feature", "properties": {"norad_id": 40336, "name": "CBERS 4", "group": "resource", "lat": -24.566538800849376, "lon": 61.702560129402976, "alt_km": 779.5668841764982, "timestamp": "2025-12-26T07:29:18.116884+00:00", "meta": {"OBJECT_NAME": "CBERS 4", "OBJECT_ID": "2014-079A", "EPOCH": "2025-12-25T23:14:22.936992", "MEAN_MOTION": 14.35522474, "ECCENTRICITY": 0.00018839, "INCLINATION": 98.3286, "RA_OF_ASC_NODE": 57.5311, "ARG_OF_PERICENTER": 98.0714, "MEAN_ANOMALY": 262.0686, "EPHEMERIS_TYPE": 0, "CLASSIFICATION_TYPE": "U", "NORAD_CAT_ID": 40336, "ELEMENT_SET_NO": 999, "REV_AT_EPOCH": 57910, "BSTAR": 4.2879032e-05, "MEAN_MOTION_DOT": 8.1e-07, "MEAN_MOTION_DDOT": 0}, "tle": {"line1": "1 40336U 14079A   25359.96832103  .00000081  00000+0  42879-4 0  9995", "line2": "2 40336  98.3286  57.5311 0001883  98.0714 262.0686 14.35522474579104"}}, "geometry": {"type": "Point", "coordinates": [61.702560129402976, -24.566538800849376]}}, {"type": "Feature", "properties": {"norad_id": 40362, "name": "YAOGAN-26", "group": "resource", "lat": -37.09737634923346, "lon": 5.886868884060182, "alt_km": 450.54737226554244, "timestamp": "2025-12-26T07:29:18.116894+00:00", "meta": {"OBJECT_NAME": "YAOGAN-26", "OBJECT_ID": "2014-088A", "EPOCH": "2025-12-25T23:51:07.482240", "MEAN_MOTION": 15.39775711, "ECCENTRICITY": 0.00042356, "INCLINATION": 97.0647, "RA_OF_ASC_NODE": 0.1983, "ARG_OF_PERICENTER": 348.2429, "MEAN_ANOMALY": 11.8718, "EPHEMERIS_TYPE": 0, "CLASSIFICATION_TYPE": "U", "NORAD_CAT_ID": 40362, "ELEMENT_SET_NO": 999, "REV_AT_EPOCH": 61098, "BSTAR": 0.00076631569, "MEAN_MOTION_DOT": 0.0003036, "MEAN_MOTION_DDOT": 0}, "tle": {"line1": "1 40362U 14088A   25359.99383660  .00030360  00000+0  76632-3 0  9992", "line2": "2 40362  97.0647   0.1983 0004235 348.2429  11.8718 15.39775711610983"}}, "geometry": {"type": "Point", "coordinates": [5.886868884060182, -37.09737634923346]}}, {"type": "Feature", "properties": {"norad_id": 40376, "name": "SMAP", "group": "resource", "lat": 79.93518874038374, "lon": -121.52129815861369, "alt_km": 674.0796225020385, "timestamp": "2025-12-26T07:29:18.116904+00:00", "meta": {"OBJECT_NAME": "SMAP", "OBJECT_ID": "2015-003A", "EPOCH": "2025-12-25T22:50:47.301504", "MEAN_MOTION": 14.63360908, "ECCENTRICITY": 0.00012334, "INCLINATION": 98.1291, "RA_OF_ASC_NODE": 4.4854, "ARG_OF_PERICENTER": 92.6642, "MEAN_ANOMALY": 267.4702, "EPHEMERIS_TYPE": 0, "CLASSIFICATION_TYPE": "U", "NORAD_CAT_ID": 40376, "ELEMENT_SET_NO": 999, "REV_AT_EPOCH": 58228, "BSTAR": 0.00011419226, "MEAN_MOTION_DOT": 5.43e-06, "MEAN_MOTION_DDOT": 0}, "tle": {"line1": "1 40376U 15003A   25359.95193636  .00000543  00000+0  11419-3 0  9995", "line2": "2 40376  98.1291   4.4854 0001233  92.6642 267.4702 14.63360908582288"}}, "geometry": {"type": "Point", "coordinates": [-121.52129815861369, 79.93518874038374]}}, {"type": "Feature", "properties": {"norad_id": 40536, "name": "KOMPSAT-3A", "group": "resource", "lat": 48.31526447852915, "lon": 164.13096756544508, "alt_km": 425.5607403135582, "timestamp": "2025-12-26T07:29:18.116915+00:00", "meta": {"OBJECT_NAME": "KOMPSAT-3A", "OBJECT_ID": "2015-014A", "EPOCH": "2025-12-25T23:08:54.769056", "MEAN_MOTION": 15.44431306, "ECCENTRICITY": 0.00056274, "INCLINATION": 97.6808, "RA_OF_ASC_NODE": 335.0467, "ARG_OF_PERICENTER": 98.1869, "MEAN_ANOMALY": 262.0017, "EPHEMERIS_TYPE": 0, "CLASSIFICATION_TYPE": "U", "NORAD_CAT_ID": 40536, "ELEMENT_SET_NO": 999, "REV_AT_EPOCH": 59499, "BSTAR": 0.00043432327, "MEAN_MOTION_DOT": 0.00020028, "MEAN_MOTION_DDOT": 0}, "tle": {"line1": "1 40536U 15014A   25359.96452279  .00020028  00000+0  43432-3 0  9997", "line2": "2 40536  97.6808 335.0467 0005627  98.1869 262.0017 15.44431306594992"}}, "geometry": {"type": "Point", "coordinates": [164.13096756544508, 48.31526447852915]}}, {"type": "Feature", "properties": {"norad_id": 40697, "name": "SENTINEL-2A", "group": "resource", "lat": 2.9127640960231775, "lon": -106.90585108657591, "alt_km": 791.5678985514096, "timestamp": "2025-12-26T07:29:18.116925+00:00", "meta": {"OBJECT_NAME": "SENTINEL-2A", "OBJECT_ID": "2015-028A", "EPOCH": "2025-12-25T22:16:20.967744", "MEAN_MOTION": 14.30809908, "ECCENTRICITY": 0.0001051, "INCLINATION": 98.5726, "RA_OF_ASC_NODE": 72.2758, "ARG_OF_PERICENTER": 88.2551, "MEAN_ANOMALY": 271.8752, "EPHEMERIS_TYPE": 0, "CLASSIFICATION_TYPE": "U", "NORAD_CAT_ID": 40697, "ELEMENT_SET_NO": 999, "REV_AT_EPOCH": 54895, "BSTAR": -5.232818e-06, "MEAN_MOTION_DOT": -5.7e-07, "MEAN_MOTION_DDOT": 0}, "tle": {"line1": "1 40697U 15028A   25359.92802046 -.00000057  00000+0 -52328-5 0  9995", "line2": "2 40697  98.5726  72.2758 0001051  88.2551 271.8752 14.30809908548957"}}, "geometry": {"type": "Point", "coordinates": [-106.90585108657591, 2.9127640960231775]}}]}